CCSDS_OMM_VERS = 2.0
CREATION_DATE  = 
ORIGINATOR     = 

OBJECT_NAME    = STARLINK-35627
OBJECT_ID      = 2025-240AC
CENTER_NAME    = EARTH
REF_FRAME      = TEME
TIME_SYSTEM    = UTC
MEAN_ELEMENT_THEORY = SGP/SGP4

EPOCH          = 2025-11-04T16:00:03.000096
MEAN_MOTION    = 15.82195606
ECCENTRICITY   = .0000935
INCLINATION    = 53.1513
RA_OF_ASC_NODE = 287.9560
ARG_OF_PERICENTER = 92.2330
MEAN_ANOMALY   = 312.9111

EPHEMERIS_TYPE = 0
CLASSIFICATION_TYPE = U
NORAD_CAT_ID   = 66172
ELEMENT_SET_NO = 999
REV_AT_EPOCH   = 278
BSTAR          = -.86198E-2
MEAN_MOTION_DOT = -.1584888E-1
MEAN_MOTION_DDOT = 0

CCSDS_OMM_VERS = 2.0
CREATION_DATE  = 
ORIGINATOR     = 

OBJECT_NAME    = STARLINK-35634
OBJECT_ID      = 2025-240AD
CENTER_NAME    = EARTH
REF_FRAME      = TEME
TIME_SYSTEM    = UTC
MEAN_ELEMENT_THEORY = SGP/SGP4

EPOCH          = 2025-11-04T16:00:03.000096
MEAN_MOTION    = 15.82213699
ECCENTRICITY   = .000108
INCLINATION    = 53.1511
RA_OF_ASC_NODE = 287.9389
ARG_OF_PERICENTER = 80.0798
MEAN_ANOMALY   = 333.4141

EPHEMERIS_TYPE = 0
CLASSIFICATION_TYPE = U
NORAD_CAT_ID   = 66173
ELEMENT_SET_NO = 999
REV_AT_EPOCH   = 278
BSTAR          = -.88008E-2
MEAN_MOTION_DOT = -.1615188E-1
MEAN_MOTION_DDOT = 0

CCSDS_OMM_VERS = 2.0
CREATION_DATE  = 
ORIGINATOR     = 

OBJECT_NAME    = HTV-X1
OBJECT_ID      = 2025-241A
CENTER_NAME    = EARTH
REF_FRAME      = TEME
TIME_SYSTEM    = UTC
MEAN_ELEMENT_THEORY = SGP/SGP4

EPOCH          = 2025-11-04T20:58:11.069472
MEAN_MOTION    = 15.49753834
ECCENTRICITY   = .00050432
INCLINATION    = 51.6335
RA_OF_ASC_NODE = 329.9349
ARG_OF_PERICENTER = 17.8705
MEAN_ANOMALY   = 342.2460

EPHEMERIS_TYPE = 0
CLASSIFICATION_TYPE = U
NORAD_CAT_ID   = 66174
ELEMENT_SET_NO = 999
REV_AT_EPOCH   = 145
BSTAR          = .18804931E-3
MEAN_MOTION_DOT = .10201E-3
MEAN_MOTION_DDOT = 0

CCSDS_OMM_VERS = 2.0
CREATION_DATE  = 
ORIGINATOR     = 

OBJECT_NAME    = GAOFEN-14 02
OBJECT_ID      = 2025-242A
CENTER_NAME    = EARTH
REF_FRAME      = TEME
TIME_SYSTEM    = UTC
MEAN_ELEMENT_THEORY = SGP/SGP4

EPOCH          = 2025-10-28T02:32:28.748256
MEAN_MOTION    = 15.27335919
ECCENTRICITY   = .0010327
INCLINATION    = 97.4398
RA_OF_ASC_NODE = 13.2893
ARG_OF_PERICENTER = 261.9781
MEAN_ANOMALY   = 98.0286

EPHEMERIS_TYPE = 0
CLASSIFICATION_TYPE = U
NORAD_CAT_ID   = 66175
ELEMENT_SET_NO = 999
REV_AT_EPOCH   = 30
BSTAR          = .55401E-3
MEAN_MOTION_DOT = .14793E-3
MEAN_MOTION_DDOT = 0

CCSDS_OMM_VERS = 2.0
CREATION_DATE  = 
ORIGINATOR     = 

OBJECT_NAME    = CZ-3B R/B
OBJECT_ID      = 2025-242B
CENTER_NAME    = EARTH
REF_FRAME      = TEME
TIME_SYSTEM    = UTC
MEAN_ELEMENT_THEORY = SGP/SGP4

EPOCH          = 2025-10-28T22:23:52.906272
MEAN_MOTION    = 15.40950652
ECCENTRICITY   = .010504
INCLINATION    = 97.4517
RA_OF_ASC_NODE = 13.9913
ARG_OF_PERICENTER = 32.7474
MEAN_ANOMALY   = 328.0225

EPHEMERIS_TYPE = 0
CLASSIFICATION_TYPE = U
NORAD_CAT_ID   = 66176
ELEMENT_SET_NO = 999
REV_AT_EPOCH   = 43
BSTAR          = .72796E-3
MEAN_MOTION_DOT = .36568E-3
MEAN_MOTION_DDOT = 0

CCSDS_OMM_VERS = 2.0
CREATION_DATE  = 
ORIGINATOR     = 

OBJECT_NAME    = 2025-242C
OBJECT_ID      = 2025-242C
CENTER_NAME    = EARTH
REF_FRAME      = TEME
TIME_SYSTEM    = UTC
MEAN_ELEMENT_THEORY = SGP/SGP4

EPOCH          = 2025-10-26T09:41:17.179584
MEAN_MOTION    = 15.17165482
ECCENTRICITY   = .0044551
INCLINATION    = 97.6110
RA_OF_ASC_NODE = 12.4552
ARG_OF_PERICENTER = 134.5252
MEAN_ANOMALY   = 225.9635

EPHEMERIS_TYPE = 0
CLASSIFICATION_TYPE = U
NORAD_CAT_ID   = 66177
ELEMENT_SET_NO = 999
REV_AT_EPOCH   = 3
BSTAR          = .21434E-3
MEAN_MOTION_DOT = .4293E-4
MEAN_MOTION_DDOT = 0

CCSDS_OMM_VERS = 2.0
CREATION_DATE  = 
ORIGINATOR     = 

OBJECT_NAME    = GRAVITY-1 R/B
OBJECT_ID      = 2025-226E
CENTER_NAME    = EARTH
REF_FRAME      = TEME
TIME_SYSTEM    = UTC
MEAN_ELEMENT_THEORY = SGP/SGP4

EPOCH          = 2025-11-04T22:50:51.477216
MEAN_MOTION    = 15.53849045
ECCENTRICITY   = .01608443
INCLINATION    = 97.7935
RA_OF_ASC_NODE = 25.3332
ARG_OF_PERICENTER = 309.2847
MEAN_ANOMALY   = 49.4230

EPHEMERIS_TYPE = 0
CLASSIFICATION_TYPE = U
NORAD_CAT_ID   = 66205
ELEMENT_SET_NO = 999
REV_AT_EPOCH   = 160
BSTAR          = .33235375E-3
MEAN_MOTION_DOT = .37309E-3
MEAN_MOTION_DDOT = .2724107E-5

CCSDS_OMM_VERS = 2.0
CREATION_DATE  = 
ORIGINATOR     = 

OBJECT_NAME    = SHENZHOU-21 (SZ-21)
OBJECT_ID      = 2025-246A
CENTER_NAME    = EARTH
REF_FRAME      = TEME
TIME_SYSTEM    = UTC
MEAN_ELEMENT_THEORY = SGP/SGP4

EPOCH          = 2025-11-04T20:44:22.264512
MEAN_MOTION    = 15.60384612
ECCENTRICITY   = .00062289
INCLINATION    = 41.4668
RA_OF_ASC_NODE = 246.7216
ARG_OF_PERICENTER = 323.7739
MEAN_ANOMALY   = 36.2677

EPHEMERIS_TYPE = 0
CLASSIFICATION_TYPE = U
NORAD_CAT_ID   = 66263
ELEMENT_SET_NO = 999
REV_AT_EPOCH   = 25809
BSTAR          = .33527055E-3
MEAN_MOTION_DOT = .28084E-3
MEAN_MOTION_DDOT = 0

CCSDS_OMM_VERS = 2.0
CREATION_DATE  = 
ORIGINATOR     = 

OBJECT_NAME    = CZ-2F R/B
OBJECT_ID      = 2025-246B
CENTER_NAME    = EARTH
REF_FRAME      = TEME
TIME_SYSTEM    = UTC
MEAN_ELEMENT_THEORY = SGP/SGP4

EPOCH          = 2025-11-04T03:06:07.110144
MEAN_MOTION    = 16.06758210
ECCENTRICITY   = .0095739
INCLINATION    = 41.4653
RA_OF_ASC_NODE = 249.8168
ARG_OF_PERICENTER = 151.8123
MEAN_ANOMALY   = 208.7960

EPHEMERIS_TYPE = 0
CLASSIFICATION_TYPE = U
NORAD_CAT_ID   = 66264
ELEMENT_SET_NO = 999
REV_AT_EPOCH   = 56
BSTAR          = .6392E-3
MEAN_MOTION_DOT = .1001864E-1
MEAN_MOTION_DDOT = .75817E-5

CCSDS_OMM_VERS = 2.0
CREATION_DATE  = 
ORIGINATOR     = 

OBJECT_NAME    = CMS-03 (GSAT-7R)
OBJECT_ID      = 2025-249A
CENTER_NAME    = EARTH
REF_FRAME      = TEME
TIME_SYSTEM    = UTC
MEAN_ELEMENT_THEORY = SGP/SGP4

EPOCH          = 2025-11-03T15:11:31.440192
MEAN_MOTION    = 3.11808645
ECCENTRICITY   = .66867044
INCLINATION    = 21.3168
RA_OF_ASC_NODE = 160.0657
ARG_OF_PERICENTER = 179.2209
MEAN_ANOMALY   = 182.9715

EPHEMERIS_TYPE = 0
CLASSIFICATION_TYPE = U
NORAD_CAT_ID   = 66310
ELEMENT_SET_NO = 999
REV_AT_EPOCH   = 5
BSTAR          = .37851344E-3
MEAN_MOTION_DOT = .14449E-3
MEAN_MOTION_DDOT = -.181908E-6

CCSDS_OMM_VERS = 2.0
CREATION_DATE  = 
ORIGINATOR     = 

OBJECT_NAME    = LVM-3 R/B
OBJECT_ID      = 2025-249B
CENTER_NAME    = EARTH
REF_FRAME      = TEME
TIME_SYSTEM    = UTC
MEAN_ELEMENT_THEORY = SGP/SGP4

EPOCH          = 2025-11-02T23:49:54.111360
MEAN_MOTION    = 3.12953676
ECCENTRICITY   = .66878056
INCLINATION    = 21.3965
RA_OF_ASC_NODE = 160.6225
ARG_OF_PERICENTER = 178.2200
MEAN_ANOMALY   = 186.7171

EPHEMERIS_TYPE = 0
CLASSIFICATION_TYPE = U
NORAD_CAT_ID   = 66311
ELEMENT_SET_NO = 999
REV_AT_EPOCH   = 3
BSTAR          = .35582965E-3
MEAN_MOTION_DOT = .26741E-3
MEAN_MOTION_DDOT = .142389E-6

CCSDS_OMM_VERS = 2.0
CREATION_DATE  = 
ORIGINATOR     = 

OBJECT_NAME    = YAOGAN-46
OBJECT_ID      = 2025-250A
CENTER_NAME    = EARTH
REF_FRAME      = TEME
TIME_SYSTEM    = UTC
MEAN_ELEMENT_THEORY = SGP/SGP4

EPOCH          = 2025-11-03T15:12:16.559136
MEAN_MOTION    = 7.10158267
ECCENTRICITY   = .21926147
INCLINATION    = 20.0091
RA_OF_ASC_NODE = 117.2258
ARG_OF_PERICENTER = 125.8904
MEAN_ANOMALY   = 256.5231

EPHEMERIS_TYPE = 0
CLASSIFICATION_TYPE = U
NORAD_CAT_ID   = 66313
ELEMENT_SET_NO = 999
REV_AT_EPOCH   = 2
BSTAR          = 0
MEAN_MOTION_DOT = .24E-6
MEAN_MOTION_DDOT = 0

