STARLINK-35627          
1 66172U 25240AC  25308.66670139 -.01584888  00000+0 -86198-2 0  9998
2 66172  53.1513 287.9560 0000935  92.2330 312.9111 15.82195606  2783
STARLINK-35634          
1 66173U 25240AD  25308.66670139 -.01615188  00000+0 -88008-2 0  9999
2 66173  53.1511 287.9389 0001080  80.0798 333.4141 15.82213699  2780
HTV-X1                  
1 66174U 25241A   25308.87373923  .00010201  00000+0  18805-3 0  9996
2 66174  51.6335 329.9349 0005043  17.8705 342.2460 15.49753834  1458
GAOFEN-14 02            
1 66175U 25242A   25301.10588829  .00014793  00000+0  55401-3 0  9993
2 66175  97.4398  13.2893 0010327 261.9781  98.0286 15.27335919   301
CZ-3B R/B               
1 66176U 25242B   25301.93325123  .00036568  00000+0  72796-3 0  9991
2 66176  97.4517  13.9913 0105040  32.7474 328.0225 15.40950652   430
2025-242C               
1 66177U 25242C   25299.40367106  .00004293  00000+0  21434-3 0  9990
2 66177  97.6110  12.4552 0044551 134.5252 225.9635 15.17165482    38
GRAVITY-1 R/B           
1 66205U 25226E   25308.95198469  .00037309  27241-5  33235-3 0  9997
2 66205  97.7935  25.3332 0160844 309.2847  49.4230 15.53849045  1608
SHENZHOU-21 (SZ-21)     
1 66263U 25246A   25308.86414658  .00028084  00000+0  33527-3 0  9996
2 66263  41.4668 246.7216 0006228 323.7739  36.2677 15.60384612258095
CZ-2F R/B               
1 66264U 25246B   25308.12924896  .01001864  75817-5  63920-3 0  9998
2 66264  41.4653 249.8168 0095739 151.8123 208.7960 16.06758210   560
CMS-03 (GSAT-7R)        
1 66310U 25249A   25307.63300278  .00014449 -18191-6  37851-3 0  9990
2 66310  21.3168 160.0657 6686704 179.2209 182.9715  3.11808645    55
LVM-3 R/B               
1 66311U 25249B   25306.99298740  .00026741  14239-6  35583-3 0  9995
2 66311  21.3965 160.6225 6687805 178.2200 186.7171  3.12953676    33
YAOGAN-46               
1 66313U 25250A   25307.63352499  .00000024  00000+0  00000+0 0  9995
2 66313  20.0091 117.2258 2192614 125.8904 256.5231  7.10158267    26
